[{"OBJECT_NAME":"STARLINK-36746","OBJECT_ID":"2026-026N","EPOCH":"2026-03-09T17:17:20.739552","MEAN_MOTION":15.4925536,"ECCENTRICITY":9.162e-5,"INCLINATION":97.2846,"RA_OF_ASC_NODE":123.0634,"ARG_OF_PERICENTER":71.5867,"MEAN_ANOMALY":288.5484,"EPHEMERIS_TYPE":0,"CLASSIFICATION_TYPE":"U","NORAD_CAT_ID":67733,"ELEMENT_SET_NO":999,"REV_AT_EPOCH":411,"BSTAR":0.0019410593,"MEAN_MOTION_DOT":0.00107174,"MEAN_MOTION_DDOT":0},{"OBJECT_NAME":"NOAA 16 DEB","OBJECT_ID":"2000-055AK","EPOCH":"2026-03-09T13:47:07.566432","MEAN_MOTION":15.52317837,"ECCENTRICITY":0.0035141,"INCLINATION":99.1738,"RA_OF_ASC_NODE":291.3669,"ARG_OF_PERICENTER":87.8909,"MEAN_ANOMALY":272.6361,"EPHEMERIS_TYPE":0,"CLASSIFICATION_TYPE":"U","NORAD_CAT_ID":41076,"ELEMENT_SET_NO":999,"REV_AT_EPOCH":55071,"BSTAR":0.0028982,"MEAN_MOTION_DOT":0.00184726,"MEAN_MOTION_DDOT":0}]
